[{"OBJECT_NAME":"STARLINK-6275","OBJECT_ID":"2023-078F","EPOCH":"2026-03-09T22:18:42.353568","MEAN_MOTION":14.98336233,"ECCENTRICITY":0.00028002,"INCLINATION":70.0016,"RA_OF_ASC_NODE":3.8295,"ARG_OF_PERICENTER":261.6536,"MEAN_ANOMALY":98.4306,"EPHEMERIS_TYPE":0,"CLASSIFICATION_TYPE":"U","NORAD_CAT_ID":56772,"ELEMENT_SET_NO":999,"REV_AT_EPOCH":15222,"BSTAR":-0.00017523289,"MEAN_MOTION_DOT":-2.183e-5,"MEAN_MOTION_DDOT":0},{"OBJECT_NAME":"HAWK-8B","OBJECT_ID":"2024-066D","EPOCH":"2026-03-09T11:23:00.219840","MEAN_MOTION":14.98769819,"ECCENTRICITY":0.00042801,"INCLINATION":45.6192,"RA_OF_ASC_NODE":73.7012,"ARG_OF_PERICENTER":258.0487,"MEAN_ANOMALY":101.9914,"EPHEMERIS_TYPE":0,"CLASSIFICATION_TYPE":"U","NORAD_CAT_ID":59445,"ELEMENT_SET_NO":999,"REV_AT_EPOCH":10486,"BSTAR":0.00021132759,"MEAN_MOTION_DOT":2.353e-5,"MEAN_MOTION_DDOT":0}]
